[{"OBJECT_NAME":"ONEWEB-0703","OBJECT_ID":"2023-068Q","EPOCH":"2025-08-01T05:00:57.202560","MEAN_MOTION":13.15547999,"ECCENTRICITY":0.0003025,"INCLINATION":87.9068,"RA_OF_ASC_NODE":323.0352,"ARG_OF_PERICENTER":93.7645,"MEAN_ANOMALY":266.3832,"EPHEMERIS_TYPE":0,"CLASSIFICATION_TYPE":"U","NORAD_CAT_ID":56724,"ELEMENT_SET_NO":999,"REV_AT_EPOCH":10788,"BSTAR":0.0003075,"MEAN_MOTION_DOT":1.29e-6,"MEAN_MOTION_DDOT":0},{"OBJECT_NAME":"ONEWEB-0721","OBJECT_ID":"2023-068R","EPOCH":"2025-08-01T00:32:42.340128","MEAN_MOTION":13.22441497,"ECCENTRICITY":0.0002018,"INCLINATION":86.683,"RA_OF_ASC_NODE":187.5513,"ARG_OF_PERICENTER":84.4816,"MEAN_ANOMALY":275.6547,"EPHEMERIS_TYPE":0,"CLASSIFICATION_TYPE":"U","NORAD_CAT_ID":56725,"ELEMENT_SET_NO":999,"REV_AT_EPOCH":11632,"BSTAR":7.3112e-5,"MEAN_MOTION_DOT":4.5e-7,"MEAN_MOTION_DDOT":0},{"OBJECT_NAME":"ONEWEB-0015","OBJECT_ID":"2024-188A","EPOCH":"2025-07-31T17:03:01.545120","MEAN_MOTION":13.11416216,"ECCENTRICITY":0.0001777,"INCLINATION":87.8826,"RA_OF_ASC_NODE":84.9753,"ARG_OF_PERICENTER":100.691,"MEAN_ANOMALY":259.4418,"EPHEMERIS_TYPE":0,"CLASSIFICATION_TYPE":"U","NORAD_CAT_ID":61594,"ELEMENT_SET_NO":999,"REV_AT_EPOCH":4245,"BSTAR":0.001251,"MEAN_MOTION_DOT":4.56e-6,"MEAN_MOTION_DDOT":0},{"OBJECT_NAME":"ONEWEB-0687","OBJECT_ID":"2024-188B","EPOCH":"2025-07-31T15:04:41.702880","MEAN_MOTION":13.17649479,"ECCENTRICITY":0.0001255,"INCLINATION":87.9036,"RA_OF_ASC_NODE":69.7153,"ARG_OF_PERICENTER":98.086,"MEAN_ANOMALY":262.0414,"EPHEMERIS_TYPE":0,"CLASSIFICATION_TYPE":"U","NORAD_CAT_ID":61595,"ELEMENT_SET_NO":999,"REV_AT_EPOCH":4197,"BSTAR":-0.00086515,"MEAN_MOTION_DOT":-3.23e-6,"MEAN_MOTION_DDOT":0},{"OBJECT_NAME":"ONEWEB-0688","OBJECT_ID":"2024-188C","EPOCH":"2025-07-31T15:45:59.802624","MEAN_MOTION":13.17648956,"ECCENTRICITY":0.000204,"INCLINATION":87.9031,"RA_OF_ASC_NODE":69.71,"ARG_OF_PERICENTER":123.6735,"MEAN_ANOMALY":236.4591,"EPHEMERIS_TYPE":0,"CLASSIFICATION_TYPE":"U","NORAD_CAT_ID":61596,"ELEMENT_SET_NO":999,"REV_AT_EPOCH":4368,"BSTAR":-0.0009862,"MEAN_MOTION_DOT":-3.7e-6,"MEAN_MOTION_DDOT":0},{"OBJECT_NAME":"ONEWEB-0689","OBJECT_ID":"2024-188D","EPOCH":"2025-07-31T16:01:57.768672","MEAN_MOTION":13.11416578,"ECCENTRICITY":0.0001399,"INCLINATION":87.8775,"RA_OF_ASC_NODE":84.9541,"ARG_OF_PERICENTER":79.0849,"MEAN_ANOMALY":281.0437,"EPHEMERIS_TYPE":0,"CLASSIFICATION_TYPE":"U","NORAD_CAT_ID":61597,"ELEMENT_SET_NO":999,"REV_AT_EPOCH":4244,"BSTAR":-0.0013774,"MEAN_MOTION_DOT":-4.75e-6,"MEAN_MOTION_DDOT":0},{"OBJECT_NAME":"ONEWEB-0690","OBJECT_ID":"2024-188E","EPOCH":"2025-08-01T05:05:40.256736","MEAN_MOTION":13.11419726,"ECCENTRICITY":0.0002486,"INCLINATION":87.882,"RA_OF_ASC_NODE":84.808,"ARG_OF_PERICENTER":76.6709,"MEAN_ANOMALY":283.4696,"EPHEMERIS_TYPE":0,"CLASSIFICATION_TYPE":"U","NORAD_CAT_ID":61598,"ELEMENT_SET_NO":999,"REV_AT_EPOCH":4080,"BSTAR":-0.0012948,"MEAN_MOTION_DOT":-4.46e-6,"MEAN_MOTION_DDOT":0},{"OBJECT_NAME":"ONEWEB-0691","OBJECT_ID":"2024-188F","EPOCH":"2025-07-31T16:09:17.218080","MEAN_MOTION":13.11418205,"ECCENTRICITY":0.0001813,"INCLINATION":87.8731,"RA_OF_ASC_NODE":84.9065,"ARG_OF_PERICENTER":93.3113,"MEAN_ANOMALY":266.8222,"EPHEMERIS_TYPE":0,"CLASSIFICATION_TYPE":"U","NORAD_CAT_ID":61599,"ELEMENT_SET_NO":999,"REV_AT_EPOCH":4247,"BSTAR":-0.0016159,"MEAN_MOTION_DOT":-5.6e-6,"MEAN_MOTION_DDOT":0},{"OBJECT_NAME":"ONEWEB-0692","OBJECT_ID":"2024-188G","EPOCH":"2025-07-31T16:38:36.339360","MEAN_MOTION":13.11419614,"ECCENTRICITY":0.0001624,"INCLINATION":87.8804,"RA_OF_ASC_NODE":84.9836,"ARG_OF_PERICENTER":47.5916,"MEAN_ANOMALY":312.5349,"EPHEMERIS_TYPE":0,"CLASSIFICATION_TYPE":"U","NORAD_CAT_ID":61600,"ELEMENT_SET_NO":999,"REV_AT_EPOCH":4246,"BSTAR":-3.2483e-6,"MEAN_MOTION_DOT":1.2e-7,"MEAN_MOTION_DDOT":0},{"OBJECT_NAME":"ONEWEB-0693","OBJECT_ID":"2024-188H","EPOCH":"2025-07-31T16:03:02.235168","MEAN_MOTION":13.17648445,"ECCENTRICITY":0.0002611,"INCLINATION":87.9035,"RA_OF_ASC_NODE":69.7248,"ARG_OF_PERICENTER":87.1368,"MEAN_ANOMALY":273.0062,"EPHEMERIS_TYPE":0,"CLASSIFICATION_TYPE":"U","NORAD_CAT_ID":61601,"ELEMENT_SET_NO":999,"REV_AT_EPOCH":4190,"BSTAR":6.0265e-5,"MEAN_MOTION_DOT":3.6e-7,"MEAN_MOTION_DDOT":0},{"OBJECT_NAME":"ONEWEB-0695","OBJECT_ID":"2024-188J","EPOCH":"2025-08-01T04:53:27.333312","MEAN_MOTION":13.11418865,"ECCENTRICITY":0.0001268,"INCLINATION":87.8803,"RA_OF_ASC_NODE":84.8674,"ARG_OF_PERICENTER":65.6859,"MEAN_ANOMALY":294.4401,"EPHEMERIS_TYPE":0,"CLASSIFICATION_TYPE":"U","NORAD_CAT_ID":61602,"ELEMENT_SET_NO":999,"REV_AT_EPOCH":4077,"BSTAR":-0.0011393,"MEAN_MOTION_DOT":-3.91e-6,"MEAN_MOTION_DDOT":0},{"OBJECT_NAME":"ONEWEB-0697","OBJECT_ID":"2024-188K","EPOCH":"2025-07-31T16:50:48.774624","MEAN_MOTION":13.11418432,"ECCENTRICITY":0.0001769,"INCLINATION":87.8795,"RA_OF_ASC_NODE":84.962,"ARG_OF_PERICENTER":49.6282,"MEAN_ANOMALY":310.5,"EPHEMERIS_TYPE":0,"CLASSIFICATION_TYPE":"U","NORAD_CAT_ID":61603,"ELEMENT_SET_NO":999,"REV_AT_EPOCH":4244,"BSTAR":0.001256,"MEAN_MOTION_DOT":4.58e-6,"MEAN_MOTION_DDOT":0},{"OBJECT_NAME":"ONEWEB-0698","OBJECT_ID":"2024-188L","EPOCH":"2025-08-01T03:18:15.992640","MEAN_MOTION":13.11417969,"ECCENTRICITY":0.0002451,"INCLINATION":87.8801,"RA_OF_ASC_NODE":84.8872,"ARG_OF_PERICENTER":56.3236,"MEAN_ANOMALY":303.8125,"EPHEMERIS_TYPE":0,"CLASSIFICATION_TYPE":"U","NORAD_CAT_ID":61604,"ELEMENT_SET_NO":999,"REV_AT_EPOCH":4056,"BSTAR":-0.00119,"MEAN_MOTION_DOT":-4.09e-6,"MEAN_MOTION_DDOT":0},{"OBJECT_NAME":"ONEWEB-0699","OBJECT_ID":"2024-188M","EPOCH":"2025-07-31T23:19:55.894080","MEAN_MOTION":13.10376361,"ECCENTRICITY":0.0001878,"INCLINATION":87.8807,"RA_OF_ASC_NODE":100.1201,"ARG_OF_PERICENTER":58.1181,"MEAN_ANOMALY":302.0129,"EPHEMERIS_TYPE":0,"CLASSIFICATION_TYPE":"U","NORAD_CAT_ID":61605,"ELEMENT_SET_NO":999,"REV_AT_EPOCH":4137,"BSTAR":0.00080538,"MEAN_MOTION_DOT":2.94e-6,"MEAN_MOTION_DDOT":0},{"OBJECT_NAME":"ONEWEB-0700","OBJECT_ID":"2024-188N","EPOCH":"2025-07-31T23:22:18.361632","MEAN_MOTION":13.10375297,"ECCENTRICITY":0.0001254,"INCLINATION":87.8767,"RA_OF_ASC_NODE":100.0176,"ARG_OF_PERICENTER":59.4275,"MEAN_ANOMALY":300.6976,"EPHEMERIS_TYPE":0,"CLASSIFICATION_TYPE":"U","NORAD_CAT_ID":61606,"ELEMENT_SET_NO":999,"REV_AT_EPOCH":4136,"BSTAR":0.00080874,"MEAN_MOTION_DOT":2.95e-6,"MEAN_MOTION_DDOT":0},{"OBJECT_NAME":"ONEWEB-0701","OBJECT_ID":"2024-188P","EPOCH":"2025-07-31T16:26:24.217728","MEAN_MOTION":13.10370918,"ECCENTRICITY":0.0001852,"INCLINATION":87.8797,"RA_OF_ASC_NODE":100.1854,"ARG_OF_PERICENTER":49.3328,"MEAN_ANOMALY":310.796,"EPHEMERIS_TYPE":0,"CLASSIFICATION_TYPE":"U","NORAD_CAT_ID":61607,"ELEMENT_SET_NO":999,"REV_AT_EPOCH":3966,"BSTAR":0.0014335,"MEAN_MOTION_DOT":5.13e-6,"MEAN_MOTION_DDOT":0},{"OBJECT_NAME":"ONEWEB-0702","OBJECT_ID":"2024-188Q","EPOCH":"2025-07-31T15:35:07.600992","MEAN_MOTION":13.11415562,"ECCENTRICITY":0.0001415,"INCLINATION":87.8733,"RA_OF_ASC_NODE":84.9401,"ARG_OF_PERICENTER":46.9958,"MEAN_ANOMALY":313.1288,"EPHEMERIS_TYPE":0,"CLASSIFICATION_TYPE":"U","NORAD_CAT_ID":61608,"ELEMENT_SET_NO":999,"REV_AT_EPOCH":4247,"BSTAR":0.00072217,"MEAN_MOTION_DOT":2.69e-6,"MEAN_MOTION_DDOT":0}]
