ONEWEB-0703             
1 56724U 23068Q   25213.20899540  .00000129  00000+0  30750-3 0  9992
2 56724  87.9068 323.0352 0003025  93.7645 266.3832 13.15547999107883
ONEWEB-0721             
1 56725U 23068R   25213.02271227  .00000045  00000+0  73112-4 0  9996
2 56725  86.6830 187.5513 0002018  84.4816 275.6547 13.22441497116326
ONEWEB-0015             
1 61594U 24188A   25212.71043455  .00000456  00000+0  12510-2 0  9994
2 61594  87.8826  84.9753 0001777 100.6910 259.4418 13.11416216 42455
ONEWEB-0687             
1 61595U 24188B   25212.62826045 -.00000323  00000+0 -86515-3 0  9991
2 61595  87.9036  69.7153 0001255  98.0860 262.0414 13.17649479 41977
ONEWEB-0688             
1 61596U 24188C   25212.65694216 -.00000370  00000+0 -98620-3 0  9990
2 61596  87.9031  69.7100 0002040 123.6735 236.4591 13.17648956 43684
ONEWEB-0689             
1 61597U 24188D   25212.66802973 -.00000475  00000+0 -13774-2 0  9995
2 61597  87.8775  84.9541 0001399  79.0849 281.0437 13.11416578 42448
ONEWEB-0690             
1 61598U 24188E   25213.21227149 -.00000446  00000+0 -12948-2 0  9994
2 61598  87.8820  84.8080 0002486  76.6709 283.4696 13.11419726 40802
ONEWEB-0691             
1 61599U 24188F   25212.67311595 -.00000560  00000+0 -16159-2 0  9998
2 61599  87.8731  84.9065 0001813  93.3113 266.8222 13.11418205 42472
ONEWEB-0692             
1 61600U 24188G   25212.69347615  .00000012  00000+0 -32483-5 0  9997
2 61600  87.8804  84.9836 0001624  47.5916 312.5349 13.11419614 42467
ONEWEB-0693             
1 61601U 24188H   25212.66877587  .00000036  00000+0  60265-4 0  9994
2 61601  87.9035  69.7248 0002611  87.1368 273.0062 13.17648445 41904
ONEWEB-0695             
1 61602U 24188J   25213.20378858 -.00000391  00000+0 -11393-2 0  9995
2 61602  87.8803  84.8674 0001268  65.6859 294.4401 13.11418865 40774
ONEWEB-0697             
1 61603U 24188K   25212.70195341  .00000458  00000+0  12560-2 0  9993
2 61603  87.8795  84.9620 0001769  49.6282 310.5000 13.11418432 42446
ONEWEB-0698             
1 61604U 24188L   25213.13768510 -.00000409  00000+0 -11900-2 0  9991
2 61604  87.8801  84.8872 0002451  56.3236 303.8125 13.11417969 40564
ONEWEB-0699             
1 61605U 24188M   25212.97217470  .00000294  00000+0  80538-3 0  9991
2 61605  87.8807 100.1201 0001878  58.1181 302.0129 13.10376361 41374
ONEWEB-0700             
1 61606U 24188N   25212.97382363  .00000295  00000+0  80874-3 0  9990
2 61606  87.8767 100.0176 0001254  59.4275 300.6976 13.10375297 41366
ONEWEB-0701             
1 61607U 24188P   25212.68500252  .00000513  00000+0  14335-2 0  9999
2 61607  87.8797 100.1854 0001852  49.3328 310.7960 13.10370918 39665
ONEWEB-0702             
1 61608U 24188Q   25212.64939353  .00000269  00000+0  72217-3 0  9996
2 61608  87.8733  84.9401 0001415  46.9958 313.1288 13.11415562 42479
